{
  "type": "FeatureCollection",
  "features": [
    {
      "type": "Feature",
      "properties": {
        "norad_id": 30806,
        "name": "FENGYUN 1C DEB",
        "group": "fengyun-1c-debris",
        "lat": 1.908537941432007,
        "lon": -153.2974177790397,
        "alt_km": 975.3980469972512,
        "timestamp": "2025-12-26T16:33:55.850073+00:00",
        "meta_object_name": "FENGYUN 1C DEB",
        "meta_object_id": "1999-025AUQ",
        "meta_epoch": "2025-12-26T07:15:30.079008",
        "meta_mean_motion": 13.7044132,
        "meta_eccentricity": 0.0267792,
        "meta_inclination": 99.0349,
        "meta_ra_of_asc_node": 26.034,
        "meta_arg_of_pericenter": 94.7675,
        "meta_mean_anomaly": 327.9208,
        "meta_ephemeris_type": 0,
        "meta_classification_type": "U",
        "meta_norad_cat_id": 30806,
        "meta_element_set_no": 999,
        "meta_rev_at_epoch": 93881,
        "meta_bstar": 0.00074753558,
        "meta_mean_motion_dot": 8.13e-06,
        "meta_mean_motion_ddot": 0,
        "tle_line1": "1 30806U 99025AUQ 25360.30243147  .00000813  00000+0  74754-3 0  9993",
        "tle_line2": "2 30806  99.0349  26.0340 0267792  94.7675 327.9208 13.70441320938814"
      },
      "geometry": {
        "type": "Point",
        "coordinates": [
          -153.2974177790397,
          1.908537941432007
        ]
      }
    },
    {
      "type": "Feature",
      "properties": {
        "norad_id": 30809,
        "name": "FENGYUN 1C DEB",
        "group": "fengyun-1c-debris",
        "lat": 55.711710670788555,
        "lon": 76.73601738736016,
        "alt_km": 778.9993705253682,
        "timestamp": "2025-12-26T16:33:55.850082+00:00",
        "meta_object_name": "FENGYUN 1C DEB",
        "meta_object_id": "1999-025AUT",
        "meta_epoch": "2025-12-26T04:32:24.359712",
        "meta_mean_motion": 14.2934363,
        "meta_eccentricity": 0.00520499,
        "meta_inclination": 98.788,
        "meta_ra_of_asc_node": 89.3438,
        "meta_arg_of_pericenter": 133.6928,
        "meta_mean_anomaly": 226.8584,
        "meta_ephemeris_type": 0,
        "meta_classification_type": "U",
        "meta_norad_cat_id": 30809,
        "meta_element_set_no": 999,
        "meta_rev_at_epoch": 97279,
        "meta_bstar": 0.0017332295,
        "meta_mean_motion_dot": 4.437e-05,
        "meta_mean_motion_ddot": 0,
        "tle_line1": "1 30809U 99025AUT 25360.18917083  .00004437  00000+0  17332-2 0  9993",
        "tle_line2": "2 30809  98.7880  89.3438 0052049 133.6928 226.8584 14.29343630972793"
      },
      "geometry": {
        "type": "Point",
        "coordinates": [
          76.73601738736016,
          55.711710670788555
        ]
      }
    },
    {
      "type": "Feature",
      "properties": {
        "norad_id": 30810,
        "name": "FENGYUN 1C DEB",
        "group": "fengyun-1c-debris",
        "lat": -80.0876235124793,
        "lon": -68.71531181212163,
        "alt_km": 929.5759711652554,
        "timestamp": "2025-12-26T16:33:55.850091+00:00",
        "meta_object_name": "FENGYUN 1C DEB",
        "meta_object_id": "1999-025AUU",
        "meta_epoch": "2025-12-25T03:23:24.509760",
        "meta_mean_motion": 14.0426397,
        "meta_eccentricity": 0.0179971,
        "meta_inclination": 98.6603,
        "meta_ra_of_asc_node": 170.516,
        "meta_arg_of_pericenter": 19.8149,
        "meta_mean_anomaly": 340.9894,
        "meta_ephemeris_type": 0,
        "meta_classification_type": "U",
        "meta_norad_cat_id": 30810,
        "meta_element_set_no": 999,
        "meta_rev_at_epoch": 94557,
        "meta_bstar": 0.0030195,
        "meta_mean_motion_dot": 5.503e-05,
        "meta_mean_motion_ddot": 0,
        "tle_line1": "1 30810U 99025AUU 25359.14125590  .00005503  00000+0  30195-2 0  9990",
        "tle_line2": "2 30810  98.6603 170.5160 0179971  19.8149 340.9894 14.04263970945575"
      },
      "geometry": {
        "type": "Point",
        "coordinates": [
          -68.71531181212163,
          -80.0876235124793
        ]
      }
    },
    {
      "type": "Feature",
      "properties": {
        "norad_id": 30811,
        "name": "FENGYUN 1C DEB",
        "group": "fengyun-1c-debris",
        "lat": -45.98572367155035,
        "lon": -150.53024623617216,
        "alt_km": 1198.021708682053,
        "timestamp": "2025-12-26T16:33:55.850100+00:00",
        "meta_object_name": "FENGYUN 1C DEB",
        "meta_object_id": "1999-025AUV",
        "meta_epoch": "2025-12-24T01:44:19.374144",
        "meta_mean_motion": 13.61876924,
        "meta_eccentricity": 0.02779162,
        "meta_inclination": 98.7823,
        "meta_ra_of_asc_node": 36.3167,
        "meta_arg_of_pericenter": 16.5271,
        "meta_mean_anomaly": 344.4713,
        "meta_ephemeris_type": 0,
        "meta_classification_type": "U",
        "meta_norad_cat_id": 30811,
        "meta_element_set_no": 999,
        "meta_rev_at_epoch": 93021,
        "meta_bstar": 0.001582937,
        "meta_mean_motion_dot": 1.538e-05,
        "meta_mean_motion_ddot": 0,
        "tle_line1": "1 30811U 99025AUV 25358.07244646  .00001538  00000+0  15829-2 0  9997",
        "tle_line2": "2 30811  98.7823  36.3167 0277916  16.5271 344.4713 13.61876924930210"
      },
      "geometry": {
        "type": "Point",
        "coordinates": [
          -150.53024623617216,
          -45.98572367155035
        ]
      }
    },
    {
      "type": "Feature",
      "properties": {
        "norad_id": 30814,
        "name": "FENGYUN 1C DEB",
        "group": "fengyun-1c-debris",
        "lat": -13.677816107927532,
        "lon": 156.19124173163104,
        "alt_km": 673.7447711943851,
        "timestamp": "2025-12-26T16:33:55.850109+00:00",
        "meta_object_name": "FENGYUN 1C DEB",
        "meta_object_id": "1999-025AUY",
        "meta_epoch": "2025-12-25T21:44:01.114944",
        "meta_mean_motion": 14.60746579,
        "meta_eccentricity": 0.0030565,
        "meta_inclination": 99.0831,
        "meta_ra_of_asc_node": 337.5626,
        "meta_arg_of_pericenter": 190.6366,
        "meta_mean_anomaly": 199.1367,
        "meta_ephemeris_type": 0,
        "meta_classification_type": "U",
        "meta_norad_cat_id": 30814,
        "meta_element_set_no": 999,
        "meta_rev_at_epoch": 97934,
        "meta_bstar": 0.0025628,
        "meta_mean_motion_dot": 0.00012548,
        "meta_mean_motion_ddot": 0,
        "tle_line1": "1 30814U 99025AUY 25359.90556846  .00012548  00000+0  25628-2 0  9992",
        "tle_line2": "2 30814  99.0831 337.5626 0030565 190.6366 199.1367 14.60746579979347"
      },
      "geometry": {
        "type": "Point",
        "coordinates": [
          156.19124173163104,
          -13.677816107927532
        ]
      }
    },
    {
      "type": "Feature",
      "properties": {
        "norad_id": 30815,
        "name": "FENGYUN 1C DEB",
        "group": "fengyun-1c-debris",
        "lat": 15.527397922845763,
        "lon": -18.75833239202633,
        "alt_km": 648.544914218457,
        "timestamp": "2025-12-26T16:33:55.850118+00:00",
        "meta_object_name": "FENGYUN 1C DEB",
        "meta_object_id": "1999-025AUZ",
        "meta_epoch": "2025-12-26T05:13:44.353344",
        "meta_mean_motion": 14.74213205,
        "meta_eccentricity": 0.00028131,
        "meta_inclination": 99.3001,
        "meta_ra_of_asc_node": 158.0908,
        "meta_arg_of_pericenter": 262.4009,
        "meta_mean_anomaly": 276.3469,
        "meta_ephemeris_type": 0,
        "meta_classification_type": "U",
        "meta_norad_cat_id": 30815,
        "meta_element_set_no": 999,
        "meta_rev_at_epoch": 97978,
        "meta_bstar": 0.0040327716,
        "meta_mean_motion_dot": 0.00026679,
        "meta_mean_motion_ddot": 0,
        "tle_line1": "1 30815U 99025AUZ 25360.21787446  .00026679  00000+0  40328-2 0  9995",
        "tle_line2": "2 30815  99.3001 158.0908 0002813 262.4009 276.3469 14.74213205979785"
      },
      "geometry": {
        "type": "Point",
        "coordinates": [
          -18.75833239202633,
          15.527397922845763
        ]
      }
    },
    {
      "type": "Feature",
      "properties": {
        "norad_id": 30816,
        "name": "FENGYUN 1C DEB",
        "group": "fengyun-1c-debris",
        "lat": -39.92487487996028,
        "lon": -116.32165219150986,
        "alt_km": 871.7345572487457,
        "timestamp": "2025-12-26T16:33:55.850127+00:00",
        "meta_object_name": "FENGYUN 1C DEB",
        "meta_object_id": "1999-025AVA",
        "meta_epoch": "2025-12-26T03:55:42.500640",
        "meta_mean_motion": 14.18090011,
        "meta_eccentricity": 0.00515302,
        "meta_inclination": 98.9129,
        "meta_ra_of_asc_node": 70.6961,
        "meta_arg_of_pericenter": 16.3148,
        "meta_mean_anomaly": 37.791,
        "meta_ephemeris_type": 0,
        "meta_classification_type": "U",
        "meta_norad_cat_id": 30816,
        "meta_element_set_no": 999,
        "meta_rev_at_epoch": 96584,
        "meta_bstar": 0.0014837064,
        "meta_mean_motion_dot": 3.039e-05,
        "meta_mean_motion_ddot": 0,
        "tle_line1": "1 30816U 99025AVA 25360.16368635  .00003039  00000+0  14837-2 0  9996",
        "tle_line2": "2 30816  98.9129  70.6961 0051530  16.3148  37.7910 14.18090011965848"
      },
      "geometry": {
        "type": "Point",
        "coordinates": [
          -116.32165219150986,
          -39.92487487996028
        ]
      }
    }
  ]
}